1 62004U 16053W   25364.57306750  .00000073  00000-0  00000-0 0  9990
2 62004   2.1657 123.2998 0204486 260.4300  96.6839  1.02630385  4483
1 62004U 16053W   25365.54708517  .00000057  00000-0  00000-0 0  9997
2 62004   2.1676 123.2462 0204567 260.4990  96.5497  1.02630732  4491
1 62004U 16053W   25365.54708707  .00000057  00000-0  00000-0 0  9998
2 62004   2.1676 123.2468 0204563 260.4977  96.5511  1.02630734  4497
1 62004U 16053W   26001.52112559  .00000028  00000-0  00000-0 0  9996
2 62004   2.1696 123.1925 0204616 260.5692  96.4215  1.02631105  4505
1 62004U 16053W   26002.49521920 -.00000010  00000-0  00000-0 0  9991
2 62004   2.1715 123.1384 0204671 260.6381  96.3141  1.02631487  4514
1 62004U 16053W   26003.46937228 -.00000054  00000-0  00000-0 0  9999
2 62004   2.1735 123.0842 0204729 260.7065  96.2346  1.02632000  4527
1 62004U 16053W   26004.44360030 -.00000100  00000-0  00000-0 0  9991
2 62004   2.1754 123.0317 0204782 260.7718  96.1861  1.02632513  4530
1 62004U 16053W   26005.41788232 -.00000145  00000-0  00000-0 0  9996
2 62004   2.1774 122.9757 0204825 260.8419  96.1553  1.02632901  4545
1 62004U 16053W   26005.41794602 -.00000145  00000-0  00000-0 0  9994
2 62004   2.1772 122.9997 0204799 260.8219  96.1754  1.02632923  4544
1 62004U 16053W   26006.39219448 -.00000185  00000-0  00000-0 0  9996
2 62004   2.1794 122.9210 0204850 260.9121  96.1366  1.02633248  4558
1 62004U 16053W   26006.39220977 -.00000185  00000-0  00000-0 0  9995
2 62004   2.1792 122.9275 0204846 260.9057  96.1428  1.02633275  4559
1 62004U 16053W   26007.36651311 -.00000218  00000-0  00000-0 0  9990
2 62004   2.1814 122.8655 0204885 260.9820  96.1187  1.02633400  4569
1 62004U 16053W   26008.34081051 -.00000243  00000-0  00000-0 0  9995
2 62004   2.1831 122.8186 0204915 261.0432  96.1003  1.02633635  4570
1 62004U 16053W   26010.28921216 -.00000264  00000-0  00000-0 0  9990
2 62004   2.1874 122.6992 0204958 261.1789  95.9986  1.02633618  4593
1 62004U 16053W   26010.28921584 -.00000264  00000-0  00000-0 0  9998
2 62004   2.1873 122.7004 0204954 261.1785  95.9991  1.02633614  4591
1 62004U 16053W   26011.26335149 -.00000259  00000-0  00000-0 0  9997
2 62004   2.1894 122.6442 0204999 261.2505  95.9154  1.02633423  4600
1 62004U 16053W   26012.23746014 -.00000242  00000-0  00000-0 0  9994
2 62004   2.1915 122.5883 0205033 261.3164  95.8229  1.02633047  4619
1 62004U 16053W   26013.21154629 -.00000216  00000-0  00000-0 0  9999
2 62004   2.1934 122.5339 0205021 261.3814  95.7228  1.02632674  4629
1 62004U 16053W   26013.21160565 -.00000216  00000-0  00000-0 0  9995
2 62004   2.1934 122.5534 0205020 261.3655  95.7389  1.02632608  4623
1 62004U 16053W   26014.18561688 -.00000181  00000-0  00000-0 0  9994
2 62004   2.1955 122.4784 0205069 261.4537  95.6122  1.02632329  4630
1 62004U 16053W   26014.18567433 -.00000181  00000-0  00000-0 0  9998
2 62004   2.1955 122.4984 0205066 261.4343  95.6318  1.02632302  4632
1 62004U 16053W   26015.15970841 -.00000139  00000-0  00000-0 0  9990
2 62004   2.1976 122.4233 0205128 261.5270  95.5051  1.02631926  4646
1 62004U 16053W   26017.10807047 -.00000048  00000-0  00000-0 0  9993
2 62004   2.2016 122.3338 0205220 261.6547  95.3486  1.02631111  4666
1 62004U 16053W   26017.10807918 -.00000048  00000-0  00000-0 0  9990
2 62004   2.2015 122.3370 0205208 261.6501  95.3533  1.02631111  4660
1 62004U 16053W   26018.08224224 -.00000006  00000-0  00000-0 0  9995
2 62004   2.2036 122.2591 0205307 261.7526  95.2631  1.02630855  4678
1 62004U 16053W   26018.08229794 -.00000006  00000-0  00000-0 0  9992
2 62004   2.2036 122.2787 0205281 261.7319  95.2840  1.02630833  4674
1 62004U 16053W   26019.05657559  .00000029  00000-0  00000-0 0  9998
2 62004   2.2056 122.2227 0205338 261.8106  95.2375  1.02630677  4683
1 62004U 16053W   26019.05658231  .00000029  00000-0  00000-0 0  9996
2 62004   2.2056 122.2241 0205336 261.8079  95.2402  1.02630645  4682
1 62004U 16053W   26020.03090874  .00000055  00000-0  00000-0 0  9998
2 62004   2.2077 122.1662 0205378 261.8906  95.2066  1.02630532  4698
1 62004U 16053W   26021.00520744  .00000068  00000-0  00000-0 0  9994
2 62004   2.2096 122.0925 0205442 261.9913  95.1653  1.02630682  4700
1 62004U 16053W   26022.95396208  .00000051  00000-0  00000-0 0  9997
2 62004   2.2137 122.0038 0205514 262.1264  95.1433  1.02631175  4729
1 62004U 16053W   26023.92824298  .00000020  00000-0  00000-0 0  9996
2 62004   2.2157 121.9506 0205544 262.2041  95.0998  1.02631652  4732
1 62004U 16053W   26023.92827625  .00000020  00000-0  00000-0 0  9993
2 62004   2.2155 121.9603 0205556 262.1943  95.1093  1.02631572  4739
1 62004U 16053W   26024.90246152 -.00000023  00000-0  00000-0 0  9996
2 62004   2.2177 121.8980 0205594 262.2806  95.0328  1.02632123  4745
1 62004U 16053W   26025.87660203 -.00000077  00000-0  00000-0 0  9999
2 62004   2.2196 121.8448 0205634 262.3572  94.9409  1.02632657  4752
1 62004U 16053W   26026.85068393 -.00000135  00000-0  00000-0 0  9995
2 62004   2.2214 121.7903 0205718 262.4369  94.8258  1.02633129  4763
1 62004U 16053W   26027.82474275 -.00000193  00000-0  00000-0 0  9997
2 62004   2.2235 121.7396 0205770 262.5125  94.7075  1.02633617  4770
1 62004U 16053W   26027.82475159 -.00000193  00000-0  00000-0 0  9999
2 62004   2.2234 121.7424 0205766 262.5108  94.7093  1.02633603  4772
1 62004U 16053W   26029.77296463 -.00000289  00000-0  00000-0 0  9990
2 62004   2.2271 121.6434 0205885 262.6589  94.5047  1.02634007  4797
1 62004U 16053W   26030.74712189 -.00000316  00000-0  00000-0 0  9998
2 62004   2.2292 121.5824 0205940 262.7426  94.4277  1.02634079  4800
1 62004U 16053W   26030.74712452 -.00000316  00000-0  00000-0 0  9991
2 62004   2.2292 121.5809 0205959 262.7440  94.4262  1.02634003  4800
1 62004U 16053W   26031.72138199 -.00000326  00000-0  00000-0 0  9991
2 62004   2.2312 121.5295 0205992 262.8168  94.3870  1.02633900  4817
1 62004U 16053W   26031.72138825 -.00000326  00000-0  00000-0 0  9997
2 62004   2.2311 121.5310 0205996 262.8172  94.3863  1.02633873  4814
1 62004U 16053W   26032.69569758 -.00000318  00000-0  00000-0 0  9998
2 62004   2.2331 121.4765 0206030 262.8910  94.3673  1.02633607  4824
1 62004U 16053W   26032.69569859 -.00000318  00000-0  00000-0 0  9990
2 62004   2.2331 121.4760 0206042 262.8922  94.3660  1.02633581  4822
1 62004U 16053W   26033.67005175 -.00000292  00000-0  00000-0 0  9996
2 62004   2.2350 121.4220 0206111 262.9712  94.3529  1.02633104  4835
1 62004U 16053W   26034.64440892 -.00000253  00000-0  00000-0 0  9990
2 62004   2.2369 121.3677 0206190 263.0523  94.3380  1.02632554  4843
1 62004U 16053W   26035.61875272 -.00000204  00000-0  00000-0 0  9998
2 62004   2.2390 121.3149 0206232 263.1276  94.3200  1.02631961  4857
1 62004U 16053W   26036.59305723 -.00000150  00000-0  00000-0 0  9995
2 62004   2.2409 121.2607 0206289 263.2064  94.2821  1.02631357  4862
1 62004U 16053W   26036.59307577 -.00000150  00000-0  00000-0 0  9994
2 62004   2.2408 121.2681 0206265 263.1944  94.2942  1.02631373  4865
1 62004U 16053W   26037.56725558 -.00000097  00000-0  00000-0 0  9995
2 62004   2.2430 121.1879 0206360 263.3076  94.2026  1.02630917  4879
1 62004U 16053W   26037.56730467 -.00000097  00000-0  00000-0 0  9990
2 62004   2.2429 121.2060 0206352 263.2882  94.2218  1.02630916  4877
1 62004U 16053W   26037.56730564 -.00000097  00000-0  00000-0 0  9998
2 62004   2.2430 121.2078 0206335 263.2831  94.2272  1.02630960  4872
1 62004U 16053W   26037.56734112 -.00000097  00000-0  00000-0 0  9991
2 62004   2.2428 121.2174 0206324 263.2703  94.2400  1.02630860  4874
1 62004U 16053W   26038.54144418 -.00000049  00000-0  00000-0 0  9991
2 62004   2.2448 121.1260 0206433 263.3967  94.1163  1.02630518  4892
1 62004U 16053W   26038.54152179 -.00000049  00000-0  00000-0 0  9994
2 62004   2.2449 121.1585 0206401 263.3596  94.1538  1.02630627  4882
1 62004U 16053W   26039.51568440 -.00000010  00000-0  00000-0 0  9992
2 62004   2.2470 121.1001 0206478 263.4510  94.0503  1.02630356  4891
1 62004U 16053W   26040.48982761  .00000018  00000-0  00000-0 0  9993
2 62004   2.2489 121.0458 0206544 263.5400  93.9403  1.02630318  4906
1 62004U 16053W   26040.48986582  .00000018  00000-0  00000-0 0  9998
2 62004   2.2488 121.0566 0206511 263.5159  93.9648  1.02630224  4907
1 62004U 16053W   26041.46396522  .00000033  00000-0  00000-0 0  9993
2 62004   2.2510 120.9955 0206785 263.6815  93.7729  1.02630505  4917
1 62004U 16053W   26041.46398817  .00000033  00000-0  00000-0 0  9992
2 62004   2.2509 120.9966 0206793 263.6738  93.7805  1.02630288  4913
1 62004U 16053W   26042.43812249  .00000035  00000-0  00000-0 0  9992
2 62004   2.2531 120.9398 0206805 263.7885  93.6467  1.02630650  4922
1 62004U 16053W   26042.43812772  .00000035  00000-0  00000-0 0  9993
2 62004   2.2531 120.9430 0206793 263.7819  93.6535  1.02630681  4922
1 62004U 16053W   26043.41229941  .00000025  00000-0  00000-0 0  9991
2 62004   2.2551 120.8849 0206870 263.8742  93.5518  1.02630946  4934
1 62004U 16053W   26043.41230856  .00000025  00000-0  00000-0 0  9998
2 62004   2.2550 120.8941 0206856 263.8584  93.5677  1.02631093  4934
1 62004U 16053W   26044.38651479  .00000003  00000-0  00000-0 0  9999
2 62004   2.2572 120.8342 0206931 263.9514  93.4803  1.02631416  4941
1 62004U 16053W   26045.36076750 -.00000027  00000-0  00000-0 0  9998
2 62004   2.2591 120.7780 0207032 264.0483  93.4064  1.02631838  4955
1 62004U 16053W   26046.33506628 -.00000062  00000-0  00000-0 0  9997
2 62004   2.2612 120.7267 0207096 264.1313  93.3647  1.02632375  4966
1 62004U 16053W   26047.30939792 -.00000101  00000-0  00000-0 0  9991
2 62004   2.2633 120.6720 0207172 264.2243  93.3282  1.02632834  4976
1 62004U 16053W   26047.30939905 -.00000101  00000-0  00000-0 0  9997
2 62004   2.2632 120.6709 0207189 264.2288  93.3235  1.02632789  4976
1 62004U 16053W   26048.28374993 -.00000139  00000-0  00000-0 0  9996
2 62004   2.2653 120.6185 0207254 264.3149  93.3034  1.02633262  4982
